[{"OBJECT_NAME":"ISS (ZARYA)","OBJECT_ID":"1998-067A","EPOCH":"2026-04-29T04:01:29.631648","MEAN_MOTION":15.49015163,"ECCENTRICITY":0.00070957,"INCLINATION":51.632,"RA_OF_ASC_NODE":182.7324,"ARG_OF_PERICENTER":3.0267,"MEAN_ANOMALY":357.0763,"EPHEMERIS_TYPE":0,"CLASSIFICATION_TYPE":"U","NORAD_CAT_ID":25544,"ELEMENT_SET_NO":999,"REV_AT_EPOCH":56415,"BSTAR":0.00013229681,"MEAN_MOTION_DOT":6.851e-5,"MEAN_MOTION_DDOT":0},{"OBJECT_NAME":"POISK","OBJECT_ID":"2009-060A","EPOCH":"2026-04-29T04:01:29.631648","MEAN_MOTION":15.49015163,"ECCENTRICITY":0.00070957,"INCLINATION":51.632,"RA_OF_ASC_NODE":182.7324,"ARG_OF_PERICENTER":3.0267,"MEAN_ANOMALY":357.0763,"EPHEMERIS_TYPE":0,"CLASSIFICATION_TYPE":"U","NORAD_CAT_ID":36086,"ELEMENT_SET_NO":999,"REV_AT_EPOCH":56352,"BSTAR":0.00013229681,"MEAN_MOTION_DOT":6.851e-5,"MEAN_MOTION_DDOT":0},{"OBJECT_NAME":"CSS (TIANHE)","OBJECT_ID":"2021-035A","EPOCH":"2026-04-29T07:01:34.605696","MEAN_MOTION":15.63149064,"ECCENTRICITY":0.00067205,"INCLINATION":41.467,"RA_OF_ASC_NODE":259.6892,"ARG_OF_PERICENTER":294.8337,"MEAN_ANOMALY":65.1804,"EPHEMERIS_TYPE":0,"CLASSIFICATION_TYPE":"U","NORAD_CAT_ID":48274,"ELEMENT_SET_NO":999,"REV_AT_EPOCH":28552,"BSTAR":0.00026128437,"MEAN_MOTION_DOT":0.00024304,"MEAN_MOTION_DDOT":0},{"OBJECT_NAME":"ISS (NAUKA)","OBJECT_ID":"2021-066A","EPOCH":"2026-04-29T04:01:29.631648","MEAN_MOTION":15.49015163,"ECCENTRICITY":0.00070957,"INCLINATION":51.632,"RA_OF_ASC_NODE":182.7324,"ARG_OF_PERICENTER":3.0267,"MEAN_ANOMALY":357.0763,"EPHEMERIS_TYPE":0,"CLASSIFICATION_TYPE":"U","NORAD_CAT_ID":49044,"ELEMENT_SET_NO":999,"REV_AT_EPOCH":56356,"BSTAR":0.00013229681,"MEAN_MOTION_DOT":6.851e-5,"MEAN_MOTION_DDOT":0},{"OBJECT_NAME":"FREGAT DEB","OBJECT_ID":"2011-037PF","EPOCH":"2026-04-28T11:08:17.407968","MEAN_MOTION":12.41119898,"ECCENTRICITY":0.09387029,"INCLINATION":51.6396,"RA_OF_ASC_NODE":151.2789,"ARG_OF_PERICENTER":173.4284,"MEAN_ANOMALY":187.9946,"EPHEMERIS_TYPE":0,"CLASSIFICATION_TYPE":"U","NORAD_CAT_ID":49271,"ELEMENT_SET_NO":999,"REV_AT_EPOCH":21887,"BSTAR":0.013511369,"MEAN_MOTION_DOT":8.798e-5,"MEAN_MOTION_DDOT":0},{"OBJECT_NAME":"CSS (WENTIAN)","OBJECT_ID":"2022-085A","EPOCH":"2026-04-29T07:01:34.605696","MEAN_MOTION":15.63149064,"ECCENTRICITY":0.00067205,"INCLINATION":41.467,"RA_OF_ASC_NODE":259.6892,"ARG_OF_PERICENTER":294.8337,"MEAN_ANOMALY":65.1804,"EPHEMERIS_TYPE":0,"CLASSIFICATION_TYPE":"U","NORAD_CAT_ID":53239,"ELEMENT_SET_NO":999,"REV_AT_EPOCH":28579,"BSTAR":0.00026128437,"MEAN_MOTION_DOT":0.00024304,"MEAN_MOTION_DDOT":0},{"OBJECT_NAME":"CSS (MENGTIAN)","OBJECT_ID":"2022-143A","EPOCH":"2026-04-29T07:01:34.605696","MEAN_MOTION":15.63149064,"ECCENTRICITY":0.00067205,"INCLINATION":41.467,"RA_OF_ASC_NODE":259.6892,"ARG_OF_PERICENTER":294.8337,"MEAN_ANOMALY":65.1804,"EPHEMERIS_TYPE":0,"CLASSIFICATION_TYPE":"U","NORAD_CAT_ID":54216,"ELEMENT_SET_NO":999,"REV_AT_EPOCH":28523,"BSTAR":0.00026128437,"MEAN_MOTION_DOT":0.00024304,"MEAN_MOTION_DDOT":0},{"OBJECT_NAME":"TIANZHOU-9","OBJECT_ID":"2025-149A","EPOCH":"2026-04-29T07:01:34.605696","MEAN_MOTION":15.63149064,"ECCENTRICITY":0.00067205,"INCLINATION":41.467,"RA_OF_ASC_NODE":259.6892,"ARG_OF_PERICENTER":294.8337,"MEAN_ANOMALY":65.1804,"EPHEMERIS_TYPE":0,"CLASSIFICATION_TYPE":"U","NORAD_CAT_ID":64786,"ELEMENT_SET_NO":999,"REV_AT_EPOCH":28524,"BSTAR":0.00026128437,"MEAN_MOTION_DOT":0.00024304,"MEAN_MOTION_DDOT":0},{"OBJECT_NAME":"HRC MONOBLOCK CAMERA","OBJECT_ID":"1998-067XR","EPOCH":"2026-04-28T15:15:31.790304","MEAN_MOTION":15.67698511,"ECCENTRICITY":0.00049662,"INCLINATION":51.6259,"RA_OF_ASC_NODE":172.4114,"ARG_OF_PERICENTER":347.6873,"MEAN_ANOMALY":12.4001,"EPHEMERIS_TYPE":0,"CLASSIFICATION_TYPE":"U","NORAD_CAT_ID":66052,"ELEMENT_SET_NO":999,"REV_AT_EPOCH":3021,"BSTAR":0.00049670242,"MEAN_MOTION_DOT":0.0005531,"MEAN_MOTION_DDOT":0},{"OBJECT_NAME":"HTV-X1","OBJECT_ID":"2025-241A","EPOCH":"2026-04-28T13:25:28.917408","MEAN_MOTION":15.63079555,"ECCENTRICITY":0.00071329,"INCLINATION":51.6354,"RA_OF_ASC_NODE":191.333,"ARG_OF_PERICENTER":1.9599,"MEAN_ANOMALY":358.1422,"EPHEMERIS_TYPE":0,"CLASSIFICATION_TYPE":"U","NORAD_CAT_ID":66174,"ELEMENT_SET_NO":999,"REV_AT_EPOCH":2858,"BSTAR":0.00015523295,"MEAN_MOTION_DOT":0.00013912,"MEAN_MOTION_DDOT":0},{"OBJECT_NAME":"SZ-21 MODULE","OBJECT_ID":"2025-246C","EPOCH":"2026-04-28T16:08:19.756896","MEAN_MOTION":15.72433742,"ECCENTRICITY":0.00037062,"INCLINATION":41.4734,"RA_OF_ASC_NODE":254.7618,"ARG_OF_PERICENTER":344.0084,"MEAN_ANOMALY":16.0641,"EPHEMERIS_TYPE":0,"CLASSIFICATION_TYPE":"U","NORAD_CAT_ID":66515,"ELEMENT_SET_NO":999,"REV_AT_EPOCH":2593,"BSTAR":0.00029633823,"MEAN_MOTION_DOT":0.00040544,"MEAN_MOTION_DDOT":0},{"OBJECT_NAME":"SHENZHOU-22","OBJECT_ID":"2025-272A","EPOCH":"2026-04-29T07:01:34.605696","MEAN_MOTION":15.63149064,"ECCENTRICITY":0.00067205,"INCLINATION":41.467,"RA_OF_ASC_NODE":259.6892,"ARG_OF_PERICENTER":294.8337,"MEAN_ANOMALY":65.1804,"EPHEMERIS_TYPE":0,"CLASSIFICATION_TYPE":"U","NORAD_CAT_ID":66645,"ELEMENT_SET_NO":999,"REV_AT_EPOCH":28525,"BSTAR":0.00026128437,"MEAN_MOTION_DOT":0.00024304,"MEAN_MOTION_DDOT":0},{"OBJECT_NAME":"SOYUZ-MS 28","OBJECT_ID":"2025-275A","EPOCH":"2026-04-29T04:01:29.631648","MEAN_MOTION":15.49015163,"ECCENTRICITY":0.00070957,"INCLINATION":51.632,"RA_OF_ASC_NODE":182.7324,"ARG_OF_PERICENTER":3.0267,"MEAN_ANOMALY":357.0763,"EPHEMERIS_TYPE":0,"CLASSIFICATION_TYPE":"U","NORAD_CAT_ID":66664,"ELEMENT_SET_NO":999,"REV_AT_EPOCH":56380,"BSTAR":0.00013229681,"MEAN_MOTION_DOT":6.851e-5,"MEAN_MOTION_DDOT":0},{"OBJECT_NAME":"DUPLEX","OBJECT_ID":"1998-067XS","EPOCH":"2026-04-28T21:05:13.510176","MEAN_MOTION":15.59327593,"ECCENTRICITY":0.0005146,"INCLINATION":51.6277,"RA_OF_ASC_NODE":177.7996,"ARG_OF_PERICENTER":356.1887,"MEAN_ANOMALY":3.9066,"EPHEMERIS_TYPE":0,"CLASSIFICATION_TYPE":"U","NORAD_CAT_ID":66906,"ELEMENT_SET_NO":999,"REV_AT_EPOCH":2295,"BSTAR":0.0003169,"MEAN_MOTION_DOT":0.00025038,"MEAN_MOTION_DDOT":0},{"OBJECT_NAME":"ISS OBJECT XT","OBJECT_ID":"1998-067XT","EPOCH":"2026-04-29T03:43:39.079488","MEAN_MOTION":15.98667726,"ECCENTRICITY":0.00115592,"INCLINATION":51.6153,"RA_OF_ASC_NODE":163.7537,"ARG_OF_PERICENTER":12.7298,"MEAN_ANOMALY":347.4001,"EPHEMERIS_TYPE":0,"CLASSIFICATION_TYPE":"U","NORAD_CAT_ID":66907,"ELEMENT_SET_NO":999,"REV_AT_EPOCH":2316,"BSTAR":0.0013205684,"MEAN_MOTION_DOT":0.00645359,"MEAN_MOTION_DDOT":0.00019387652},{"OBJECT_NAME":"ISS OBJECT XU","OBJECT_ID":"1998-067XU","EPOCH":"2026-04-28T19:54:20.838240","MEAN_MOTION":15.99191323,"ECCENTRICITY":0.00114616,"INCLINATION":51.6149,"RA_OF_ASC_NODE":165.3222,"ARG_OF_PERICENTER":11.3485,"MEAN_ANOMALY":348.7781,"EPHEMERIS_TYPE":0,"CLASSIFICATION_TYPE":"U","NORAD_CAT_ID":66908,"ELEMENT_SET_NO":999,"REV_AT_EPOCH":2311,"BSTAR":0.0012794714,"MEAN_MOTION_DOT":0.00644029,"MEAN_MOTION_DDOT":0.00019448461}]
