ISS (ZARYA)             
1 25544U 98067A   26119.16770407  .00006851  00000+0  13230-3 0  9992
2 25544  51.6320 182.7324 0007095   3.0267 357.0763 15.49015163564152
POISK                   
1 36086U 09060A   26119.16770407  .00006851  00000+0  13230-3 0  9990
2 36086  51.6320 182.7324 0007095   3.0267 357.0763 15.49015163563525
CSS (TIANHE)            
1 48274U 21035A   26119.29276164  .00024304  00000+0  26128-3 0  9996
2 48274  41.4670 259.6892 0006720 294.8337  65.1804 15.63149064285526
ISS (NAUKA)             
1 49044U 21066A   26119.16770407  .00006851  00000+0  13230-3 0  9998
2 49044  51.6320 182.7324 0007095   3.0267 357.0763 15.49015163563567
FREGAT DEB              
1 49271U 11037PF  26118.46409037  .00008798  00000+0  13511-1 0  9999
2 49271  51.6396 151.2789 0938702 173.4284 187.9946 12.41119898218870
CSS (WENTIAN)           
1 53239U 22085A   26119.29276164  .00024304  00000+0  26128-3 0  9999
2 53239  41.4670 259.6892 0006720 294.8337  65.1804 15.63149064285792
CSS (MENGTIAN)          
1 54216U 22143A   26119.29276164  .00024304  00000+0  26128-3 0  9990
2 54216  41.4670 259.6892 0006720 294.8337  65.1804 15.63149064285237
TIANZHOU-9              
1 64786U 25149A   26119.29276164  .00024304  00000+0  26128-3 0  9992
2 64786  41.4670 259.6892 0006720 294.8337  65.1804 15.63149064285241
HRC MONOBLOCK CAMERA    
1 66052U 98067XR  26118.63578461  .00055310  00000+0  49670-3 0  9999
2 66052  51.6259 172.4114 0004966 347.6873  12.4001 15.67698511 30215
HTV-X1                  
1 66174U 25241A   26118.55936247  .00013912  00000+0  15523-3 0  9991
2 66174  51.6354 191.3330 0007132   1.9599 358.1422 15.63079555 28580
SZ-21 MODULE            
1 66515U 25246C   26118.67245089  .00040544  00000+0  29634-3 0  9994
2 66515  41.4734 254.7618 0003706 344.0084  16.0641 15.72433742 25935
SHENZHOU-22             
1 66645U 25272A   26119.29276164  .00024304  00000+0  26128-3 0  9995
2 66645  41.4670 259.6892 0006720 294.8337  65.1804 15.63149064285258
SOYUZ-MS 28             
1 66664U 25275A   26119.16770407  .00006851  00000+0  13230-3 0  9991
2 66664  51.6320 182.7324 0007095   3.0267 357.0763 15.49015163563801
DUPLEX                  
1 66906U 98067XS  26118.87862859  .00025038  00000+0  31690-3 0  9997
2 66906  51.6277 177.7996 0005146 356.1887   3.9066 15.59327593 22958
ISS OBJECT XT           
1 66907U 98067XT  26119.15531342  .00645359  19388-3  13206-2 0  9999
2 66907  51.6153 163.7537 0011559  12.7298 347.4001 15.98667726 23161
ISS OBJECT XU           
1 66908U 98067XU  26118.82940785  .00644029  19448-3  12795-2 0  9990
2 66908  51.6149 165.3222 0011461  11.3485 348.7781 15.99191323 23111
